[{"OBJECT_NAME":"ONEWEB-0252","OBJECT_ID":"2021-060D","EPOCH":"2026-03-09T12:39:57.752064","MEAN_MOTION":13.16593895,"ECCENTRICITY":0.00014225,"INCLINATION":87.9003,"RA_OF_ASC_NODE":248.5932,"ARG_OF_PERICENTER":100.8906,"MEAN_ANOMALY":259.2386,"EPHEMERIS_TYPE":0,"CLASSIFICATION_TYPE":"U","NORAD_CAT_ID":48970,"ELEMENT_SET_NO":999,"REV_AT_EPOCH":22654,"BSTAR":-0.00024817125,"MEAN_MOTION_DOT":-8.2e-7,"MEAN_MOTION_DDOT":0},{"OBJECT_NAME":"THORAD AGENA D DEB","OBJECT_ID":"1970-025GD","EPOCH":"2026-03-09T21:07:02.034624","MEAN_MOTION":13.10619683,"ECCENTRICITY":0.02284558,"INCLINATION":99.6349,"RA_OF_ASC_NODE":43.1184,"ARG_OF_PERICENTER":44.9323,"MEAN_ANOMALY":9.827,"EPHEMERIS_TYPE":0,"CLASSIFICATION_TYPE":"U","NORAD_CAT_ID":4943,"ELEMENT_SET_NO":999,"REV_AT_EPOCH":66871,"BSTAR":0.00048438745,"MEAN_MOTION_DOT":1.56e-6,"MEAN_MOTION_DDOT":0}]
